IRIDIUM 116             
1 43072U 17083C   25337.16545650  .00000403  00000+0  13670-3 0  9993
2 43072  86.3975  43.9349 0002400 102.9363 257.2101 14.34220452416071
IRIDIUM 130             
1 43073U 17083D   25337.13374083  .00000407  00000+0  13808-3 0  9998
2 43073  86.3984  44.2045 0002131 105.3485 254.7946 14.34221847416014
IRIDIUM 151             
1 43074U 17083E   25336.89906389  .00000084  00000+0  22956-4 0  9997
2 43074  86.3983  44.1000 0002200  96.6283 263.5164 14.34216886416005
IRIDIUM 134             
1 43075U 17083F   25337.14642446  .00000610  00000+0  21085-3 0  9994
2 43075  86.3979  44.0017 0002076 102.4382 257.7046 14.34220031416006
IRIDIUM 137             
1 43076U 17083G   25337.15911212 -.00000035  00000+0 -19621-4 0  9993
2 43076  86.3977  44.0851 0002547  97.8848 262.2637 14.34217836416071
IRIDIUM 141             
1 43077U 17083H   25337.15276884  .00000139  00000+0  42584-4 0  9990
2 43077  86.3979  43.9297 0002035  95.1275 265.0153 14.34218080416079
IRIDIUM 153             
1 43078U 17083J   25337.10495934  .00000449  00000+0  15313-3 0  9998
2 43078  86.3980  12.4406 0001816  90.0232 270.1172 14.34217355417172
IRIDIUM 131             
1 43079U 17083K   25337.14008326  .00000062  00000+0  15174-4 0  9995
2 43079  86.3983  44.1080 0002074  94.0961 266.0472 14.34217751416004
